{
    "links": {
        "self": "http://www.neowsapp.com/rest/v1/neo/3753495?api_key=iIulBulltgU6a56xZRHN4H3l9WmuAYTsLGpBGhQ2"
    },
    "id": "3753495",
    "neo_reference_id": "3753495",
    "name": "(2016 HX23)",
    "designation": "2016 HX23",
    "nasa_jpl_url": "http://ssd.jpl.nasa.gov/sbdb.cgi?sstr=3753495",
    "absolute_magnitude_h": 26.951,
    "estimated_diameter": {
        "kilometers": {
            "estimated_diameter_min": 0.0108231824,
            "estimated_diameter_max": 0.0242013715
        },
        "meters": {
            "estimated_diameter_min": 10.8231823765,
            "estimated_diameter_max": 24.2013715268
        },
        "miles": {
            "estimated_diameter_min": 0.0067252117,
            "estimated_diameter_max": 0.0150380304
        },
        "feet": {
            "estimated_diameter_min": 35.5091296681,
            "estimated_diameter_max": 79.4008277598
        }
    },
    "is_potentially_hazardous_asteroid": false,
    "close_approach_data": [
        {
            "close_approach_date": "2016-04-25",
            "close_approach_date_full": "2016-Apr-25 08:23",
            "epoch_date_close_approach": 1461572580000,
            "relative_velocity": {
                "kilometers_per_second": "13.8709153011",
                "kilometers_per_hour": "49935.295083974",
                "miles_per_hour": "31027.8504370393"
            },
            "miss_distance": {
                "astronomical": "0.0075318018",
                "lunar": "2.9298709002",
                "kilometers": "1126741.506542166",
                "miles": "700124.7069512508"
            },
            "orbiting_body": "Earth"
        },
        {
            "close_approach_date": "2016-04-25",
            "close_approach_date_full": "2016-Apr-25 15:14",
            "epoch_date_close_approach": 1461597240000,
            "relative_velocity": {
                "kilometers_per_second": "14.326595039",
                "kilometers_per_hour": "51575.7421402261",
                "miles_per_hour": "32047.1604426311"
            },
            "miss_distance": {
                "astronomical": "0.0069258199",
                "lunar": "2.6941439411",
                "kilometers": "1036087.905043613",
                "miles": "643795.1710153394"
            },
            "orbiting_body": "Moon"
        },
        {
            "close_approach_date": "2016-06-20",
            "close_approach_date_full": "2016-Jun-20 02:13",
            "epoch_date_close_approach": 1466388780000,
            "relative_velocity": {
                "kilometers_per_second": "16.9572654428",
                "kilometers_per_hour": "61046.1555939857",
                "miles_per_hour": "37931.7070689407"
            },
            "miss_distance": {
                "astronomical": "0.0453468319",
                "lunar": "17.6399176091",
                "kilometers": "6783789.463488053",
                "miles": "4215251.3088110114"
            },
            "orbiting_body": "Mars"
        }
    ],
    "orbital_data": {
        "orbit_id": "4",
        "orbit_determination_date": "2017-04-06 08:26:15",
        "first_observation_date": "2016-04-30",
        "last_observation_date": "2016-05-03",
        "data_arc_in_days": 3,
        "observations_used": 14,
        "orbit_uncertainty": "9",
        "minimum_orbit_intersection": ".00751688",
        "jupiter_tisserand_invariant": "3.875",
        "epoch_osculation": "2457510.5",
        "eccentricity": ".5588705970345473",
        "semi_major_axis": "1.791409508921647",
        "inclination": "4.278790751322117",
        "ascending_node_longitude": "41.04583748246127",
        "orbital_period": "875.7713621439682",
        "perihelion_distance": ".7902434071372408",
        "perihelion_argument": "107.8232915152331",
        "aphelion_distance": "2.792575610706053",
        "perihelion_time": "2457458.756231984316",
        "mean_anomaly": "21.27011374297944",
        "mean_motion": ".4110661932569789",
        "equinox": "J2000",
        "orbit_class": {
            "orbit_class_type": "APO",
            "orbit_class_description": "Near-Earth asteroid orbits which cross the Earth’s orbit similar to that of 1862 Apollo",
            "orbit_class_range": "a (semi-major axis) > 1.0 AU; q (perihelion) < 1.017 AU"
        }
    },
    "is_sentry_object": false
}